HORYU-4                 
1 41340U 16012D   20164.84553760  .00000408  00000-0  24146-4 0  9996
2 41340  31.0063   1.1316 0013686 103.3412 256.8750 15.01502760237188
E-ST@R-II               
1 41459U 16025D   20165.41009780  .00000535  00000-0  31424-4 0  9991
2 41459  98.1032 275.1897 0164033 224.8865 133.8995 15.06400853226830
AAUSAT 4                
1 41460U 16025E   20165.35459848  .00001760  00000-0  89749-4 0  9994
2 41460  98.1013 277.4437 0153144 213.8685 145.2676 15.08703704227023
BEESAT-4                
1 41619U 16040W   20165.15769915  .00001136  00000-0  49721-4 0  9997
2 41619  97.3193 224.7937 0010837 185.6942 174.4174 15.24006774208748
CANX-7                  
1 41788U 16059F   20165.51005542  .00004949  00000-0  68459-3 0  9996
2 41788  98.2565 253.2471 0021941 312.0540  47.8470 14.78377128199233
RAVAN                   
1 41849U 16067B   20165.26918401  .00000345  00000-0  33915-4 0  9998
2 41849  97.9350 275.0501 0006265 255.7025 104.3501 14.98569744195990
CELTEE 1                
1 41850U 16067C   20165.26053844  .00000360  00000-0  36419-4 0  9990
2 41850  97.9278 272.7811 0007004 261.2272  98.8156 14.97188274195871
OPTICUBE 04             
1 41851U 16067D   20165.25700560  .00000437  00000-0  43307-4 0  9993
2 41851  97.9266 272.3991 0007132 263.2807  96.7603 14.96928810195851
AEROCUBE 8D             
1 41852U 16067E   20165.33988392 -.00000377  00000-0 -27491-4 0  9995
2 41852  97.9269 272.3190 0008214 264.6561  95.3723 14.96911979195845
AEROCUBE 8C             
1 41853U 16067F   20164.76975735  .00000489  00000-0  47952-4 0  9995
2 41853  97.9260 271.6457 0008514 265.7403  94.2846 14.96872023195755
PROMETHEUS 2-1          
1 41854U 16067G   20165.27498804 -.00000264  00000-0 -17553-4 0  9997
2 41854  97.9276 272.4844 0008902 265.0952  94.9253 14.97196226195849
PROMETHEUS 2-3          
1 41855U 16067H   20165.27544896 -.00000277  00000-0 -18642-4 0  9995
2 41855  97.9278 272.5172 0009076 265.5567  94.4617 14.97205669195848
INS-1B                  
1 41954U 17008G   20165.14658495  .00001047  00000-0  45073-4 0  9990
2 41954  97.3543 229.6243 0007859 325.7670  34.3061 15.24777451184714
BGUSAT                  
1 41999U 17008BD  20165.14909890  .00001797  00000-0  69518-4 0  9999
2 41999  97.3657 233.7469 0006920 337.8216  22.2723 15.27497716184293
DIDO-2                  
1 42000U 17008BE  20164.84603221  .00000645  00000-0  29129-4 0  9993
2 42000  97.3550 229.8371 0007859 348.4190  11.6865 15.24472412184065
PEASSS                  
1 42015U 17008BV  20165.15480638  .00000933  00000-0  39509-4 0  9992
2 42015  97.3574 231.7317 0005864 355.6225   4.4961 15.25612410184693
AL-FARABI 1             
1 42016U 17008BW  20165.17833811  .00001211  00000-0  49235-4 0  9997
2 42016  97.3603 232.7921 0005677 354.9678   5.1502 15.26452694184871
NAYIF-1 (EO-88)         
1 42017U 17008BX  20164.69831344  .00001238  00000-0  50196-4 0  9990
2 42017  97.3599 232.3299 0005771 355.6730   4.4458 15.26492092184825
UCLSAT                  
1 42765U 17036A   20164.69097592  .00001018  00000-0  45451-4 0  9994
2 42765  97.3008 219.0606 0012565  49.5306 310.7025 15.23523196165268
LITUANICASAT-2          
1 42768U 17036D   20165.39202236  .00001639  00000-0  70205-4 0  9992
2 42768  97.3063 219.7087 0015567  36.5894 323.6403 15.24068281165224
AALTO-1                 
1 42775U 17036L   20164.71851003  .00000647  00000-0  31410-4 0  9990
2 42775  97.2983 216.9186 0014940  41.9565 318.2813 15.21839511164953
URSA MAIOR              
1 42776U 17036M   20165.10285079  .00000695  00000-0  33334-4 0  9999
2 42776  97.2995 217.5741 0014697  40.5803 319.6526 15.22022589165025
COMPASS 2               
1 42777U 17036N   20164.69167716  .00001420  00000-0  61548-4 0  9995
2 42777  97.3054 219.4473 0013290  40.9610 319.2624 15.23920197165077
DIAMOND RED             
1 42783U 17036U   20165.40619850  .00000815  00000-0  37685-4 0  9995
2 42783  97.3008 219.0290 0013245  48.6855 311.5520 15.22834765165133
PEGASUS                 
1 42784U 17036V   20165.37223675  .00000936  00000-0  42401-4 0  9994
2 42784  97.3012 219.4148 0013090  47.8534 312.3813 15.23213379165157
DIAMOND GREEN           
1 42785U 17036W   20164.87932418  .00000846  00000-0  39005-4 0  9997
2 42785  97.3010 218.5521 0013206  51.0745 309.1667 15.22834486165126
DIAMOND BLUE            
1 42786U 17036X   20165.40419908  .00000814  00000-0  37667-4 0  9999
2 42786  97.3009 219.0578 0013007  49.6358 310.6013 15.22835120165123
NUDTSAT                 
1 42787U 17036Y   20165.43270537  .00001624  00000-0  68760-4 0  9994
2 42787  97.3055 220.8589 0013013  39.3808 320.8373 15.24522349165085
SUCHAI                  
1 42788U 17036Z   20165.39795182  .00001130  00000-0  49793-4 0  9995
2 42788  97.3021 220.0242 0012589  46.5342 313.6940 15.23763136165267
SKCUBE                  
1 42789U 17036AA  20164.72117529  .00001071  00000-0  47538-4 0  9994
2 42789  97.3016 219.2195 0012536  48.9211 311.3107 15.23603781165070
VZLUSAT-1               
1 42790U 17036AB  20164.89656057  .00001400  00000-0  59701-4 0  9999
2 42790  97.3040 220.3323 0011962  46.8528 313.3708 15.24506627165155
ROBUSTA-1B              
1 42792U 17036AD  20165.39790960  .00001089  00000-0  48044-4 0  9990
2 42792  97.3018 220.1282 0012074  47.4250 312.8004 15.23793199165208
CICERO 6                
1 42793U 17036AE  20164.66051851  .00000753  00000-0  34743-4 0  9997
2 42793  97.2995 218.8240 0011511  52.3280 307.9000 15.23141049165137
D-SAT                   
1 42794U 17036AF  20165.08092531  .00000143  00000-0  17688-4 0  9997
2 42794  97.4934 197.9535 0126703  20.3560 340.2644 14.91279709162043
CORVUS BC2              
1 42846U 17042X   20164.74651503  .00000215  00000-0  26369-4 0  9990
2 42846  97.5238  48.5173 0008190 299.1313  60.9087 14.92106367158704
CORVUS BC1              
1 42847U 17042Y   20165.41309443  .00000204  00000-0  25262-4 0  9998
2 42847  97.5240  49.3226 0007795 295.8124  64.2291 14.92207690158805
MIRATA                  
1 43015U 17073C   20164.87397760  .00001219  00000-0  98383-4 0  9999
2 43015  97.7195  77.2631 0254795  63.6605 299.0532 14.79644846138541
MAKERSAT 0              
1 43016U 17073D   20165.03683598  .00000830  00000-0  68737-4 0  9994
2 43016  97.7231  77.6013 0257508  64.1771 298.5760 14.79212644138540
DELLINGR (RBLE)         
1 43021U 98067NJ  20165.10650827  .00010384  00000-0  86766-4 0  9996
2 43021  51.6359 302.0424 0001405  44.5680 315.5430 15.70693863146182
AEROCUBE 7B (OCSD B)    
1 43042U 17071F   20165.02894876  .00002740  00000-0  69121-4 0  9993
2 43042  51.6378  88.2715 0004921  37.1128 323.0197 15.43591103141692
AEROCUBE 7C (OCSD C)    
1 43043U 17071G   20165.16173691  .00002520  00000-0  64383-4 0  9995
2 43043  51.6378  87.6731 0005179  41.1673 318.9703 15.43565776141682
CHEFSAT                 
1 43044U 17071H   20164.84097468  .00006810  00000-0  13461-3 0  9993
2 43044  51.6383  74.5528 0004930  47.2338 312.9065 15.48350354141838
ASGARDIA 1              
1 43049U 17071N   20164.89628356  .00002783  00000-0  70024-4 0  9993
2 43049  51.6392  88.2233 0002967  58.0235 302.1039 15.43607370141652
ISARA                   
1 43050U 17071P   20164.88450683  .00005727  00000-0  11851-3 0  9993
2 43050  51.6365  76.9736 0002960  61.0831 299.0453 15.47349127141803
PROPCUBE 2 (FAUNA)      
1 43052U 17071R   20164.88382298  .00002878  00000-0  71055-4 0  9998
2 43052  51.6383  86.6580 0002930  55.6687 304.4576 15.44059101141663
CORVUS BC3              
1 43118U 18004H   20165.15731627  .00000643  00000-0  29999-4 0  9991
2 43118  97.4437 235.4651 0011926  71.2051 289.0479 15.23364646134348
MICROMAS-2A             
1 43131U 18004W   20165.12126426  .00001532  00000-0  63718-4 0  9993
2 43131  97.4486 237.1447 0010758  70.9460 289.2942 15.25283213134430
SPACEBEE-4              
1 43139U 18004AE  20164.69997583  .00002344  00000-0  92375-4 0  9995
2 43139  97.4518 237.8951 0010163  73.5615 286.6739 15.26566970134421
SPACEBEE-3              
1 43140U 18004AF  20165.17126866  .00002782  00000-0  10619-3 0  9995
2 43140  97.4530 239.0441 0009798  71.3823 288.8479 15.27465079134541
SPACEBEE-2              
1 43141U 18004AG  20165.15169387  .00002871  00000-0  10851-3 0  9996
2 43141  97.4546 239.2805 0009753  70.7459 289.4834 15.27768689134550
SPACEBEE-1              
1 43142U 18004AH  20165.44787390  .00003057  00000-0  11412-3 0  9990
2 43142  97.4550 239.8346 0009689  69.8954 290.3327 15.28127194134604
CICERO 7                
1 43143U 18004AJ  20165.18808999  .00001272  00000-0  53328-4 0  9991
2 43143  97.4466 237.3947 0009076  79.0901 281.1357 15.25321217134460
GOMX-4B                 
1 43196U 18015E   20165.01848989  .00000311  00000-0  15637-4 0  9990
2 43196  97.4377 293.5874 0020350 118.1761 242.1535 15.24259405131223
GOMX-4A                 
1 43197U 18015F   20165.43700797  .00000745  00000-0  33088-4 0  9992
2 43197  97.4372 294.0906 0020366 117.0465 314.0813 15.24505159131304
1KUNS-PF                
1 43466U 98067NP  20162.72983235  .07919004  12439-4  62785-3 0  9997
2 43466  51.6123 283.7308 0007318 301.8476 166.2040 16.39179723119460
UBAKUSAT                
1 43467U 98067NQ  20165.10178942  .00023789  00000-0  15782-3 0  9995
2 43467  51.6342 304.1275 0000897 348.9943  11.1036 15.75361304119427
CUBERRT                 
1 43546U 98067NU  20164.87198830  .00016695  00000-0  12133-3 0  9999
2 43546  51.6339 304.8799 0002849  69.0155 291.1149 15.73509772109520
TEMPEST-D               
1 43547U 98067NV  20165.38188355  .00004516  00000-0  55534-4 0  9990
2 43547  51.6370 332.4320 0004970  46.6094 313.5313 15.62538360108886
RAINCUBE                
1 43548U 98067NW  20164.88441945  .00025894  00000-0  18052-3 0  9997
2 43548  51.6329 313.1801 0003011  68.2616 291.8703 15.74153497109548
